[{"OBJECT_NAME":"YAOGAN-30 10C","OBJECT_ID":"2021-055D","EPOCH":"2026-03-09T22:27:53.002368","MEAN_MOTION":15.02142069,"ECCENTRICITY":0.0003131,"INCLINATION":34.9969,"RA_OF_ASC_NODE":36.2181,"ARG_OF_PERICENTER":356.3915,"MEAN_ANOMALY":3.677,"EPHEMERIS_TYPE":0,"CLASSIFICATION_TYPE":"U","NORAD_CAT_ID":48863,"ELEMENT_SET_NO":999,"REV_AT_EPOCH":25795,"BSTAR":0.00033693874,"MEAN_MOTION_DOT":4.496e-5,"MEAN_MOTION_DDOT":0},{"OBJECT_NAME":"STARLINK-30468","OBJECT_ID":"2023-147P","EPOCH":"2026-03-09T03:02:52.335168","MEAN_MOTION":15.02566099,"ECCENTRICITY":8.004e-5,"INCLINATION":43.0042,"RA_OF_ASC_NODE":329.0906,"ARG_OF_PERICENTER":274.4003,"MEAN_ANOMALY":85.6748,"EPHEMERIS_TYPE":0,"CLASSIFICATION_TYPE":"U","NORAD_CAT_ID":57926,"ELEMENT_SET_NO":999,"REV_AT_EPOCH":13650,"BSTAR":0.00033508835,"MEAN_MOTION_DOT":4.329e-5,"MEAN_MOTION_DDOT":0}]
